ONEWEB-0012             
1 44057U 19010A   26195.61206530  .00000133  00000+0  31427-3 0  9993
2 44057  87.9080 223.3371 0001589  95.7007 264.4305 13.16594777355171
ONEWEB-0010             
1 44058U 19010B   26195.94140391  .00000002  00000+0 -28130-4 0  9996
2 44058  87.9080 223.2678 0002286 100.4614 259.6774 13.16594111355262
ONEWEB-0008             
1 44059U 19010C   26195.51075119  .00000011  00000+0 -45069-5 0  9996
2 44059  87.9077 223.3487 0002167  86.8565 273.2814 13.16593238355321
ONEWEB-0007             
1 44060U 19010D   26195.71968604 -.00000041  00000+0 -14374-3 0  9997
2 44060  87.8984 253.7354 0001929 105.8636 254.2707 13.15548486354991
ONEWEB-0006             
1 44061U 19010E   26195.72363268 -.00000109  00000+0 -32410-3 0  9990
2 44061  87.8995 253.7016 0002249  96.2862 263.8525 13.15550846355043
ONEWEB-0011             
1 44062U 19010F   26195.69194446  .00000073  00000+0  15988-3 0  9996
2 44062  87.8998 253.7179 0002266  97.8701 262.2686 13.15549658355034
ONEWEB-0013             
1 45131U 20008A   26195.60151317 -.00000187  00000+0 -57908-3 0  9990
2 45131  87.8488  47.2904 0000978  61.0397 299.0828 13.09454722309653
ONEWEB-0017             
1 45132U 20008B   26195.56481341 -.00000522  00000+0 -15329-2 0  9992
2 45132  87.8811  30.8120 0002009  92.5285 267.6072 13.10373338311531
ONEWEB-0020             
1 45133U 20008C   26195.91606678  .00000689  00000+0  19369-2 0  9994
2 45133  87.8821  30.7413 0001835  87.4822 272.6515 13.10372112311978
ONEWEB-0021             
1 45134U 20008D   26195.54953344  .00000189  00000+0  50399-3 0  9993
2 45134  87.8811  30.8291 0001747  91.2720 268.8608 13.10369003312230
ONEWEB-0023             
1 45136U 20008F   26195.56055716 -.00000420  00000+0 -12398-2 0  9999
2 45136  87.8817  30.8107 0001825  82.7739 277.3596 13.10369269311667
ONEWEB-0024             
1 45137U 20008G   26195.91449905  .00000666  00000+0  18706-2 0  9995
2 45137  87.8828  30.7336 0001847  91.2809 268.8531 13.10372685311873
ONEWEB-0025             
1 45138U 20008H   26195.91422621  .00000679  00000+0  19093-2 0  9996
2 45138  87.8828  30.7239 0002221  80.6777 279.4601 13.10373089312202
ONEWEB-0026             
1 45139U 20008J   26195.54910872  .00000021  00000+0  22970-4 0  9997
2 45139  87.8884  15.6189 0001997  90.9738 269.1619 13.11418375314690
ONEWEB-0028             
1 45140U 20008K   26195.90600275 -.00000462  00000+0 -13392-2 0  9999
2 45140  87.8877  15.5550 0001306  82.9606 277.1670 13.11415399312253
ONEWEB-0032             
1 45141U 20008L   26195.94843382 -.00000530  00000+0 -15533-2 0  9997
2 45141  87.8815  30.7378 0001470  76.4128 283.7163 13.10371896311938
ONEWEB-0033             
1 45142U 20008M   26195.61741895  .00000447  00000+0  12446-2 0  9993
2 45142  87.8811  30.8096 0002251  96.9611 263.1772 13.10369577311802
ONEWEB-0035             
1 45143U 20008N   26195.56155281 -.00000465  00000+0 -13695-2 0  9995
2 45143  87.8811  30.8141 0001811  90.4492 269.6843 13.10374640311527
ONEWEB-0036             
1 45144U 20008P   26195.53925576  .00000599  00000+0  16801-2 0  9993
2 45144  87.8829  30.8356 0001725  82.9035 277.2288 13.10372047311941
ONEWEB-0038             
1 45145U 20008Q   26195.86461287  .00000296  00000+0  79866-3 0  9999
2 45145  87.8900  15.5689 0001988 143.1696 216.9569 13.11417402313956
ONEWEB-0039             
1 45146U 20008R   26195.62081279  .00000413  00000+0  11482-2 0  9993
2 45146  87.8814  30.8000 0001339  79.1762 280.9516 13.10369602311756
ONEWEB-0040             
1 45147U 20008S   26195.91945059  .00000677  00000+0  19033-2 0  9993
2 45147  87.8813  30.7505 0001876  76.6427 283.4910 13.10371240311499
ONEWEB-0043             
1 45149U 20008U   26195.53950368  .00000542  00000+0  15164-2 0  9994
2 45149  87.8819  30.8157 0001343  78.7041 281.4237 13.10373234311760
ONEWEB-0044             
1 45150U 20008V   26195.56820539 -.00000563  00000+0 -16488-2 0  9990
2 45150  87.8823  30.8120 0001760  85.3736 274.7593 13.10374731312062
ONEWEB-0045             
1 45151U 20008W   26195.85938405  .00000218  00000+0  57925-3 0  9992
2 45151  87.8892  15.5510 0001725  91.1454 268.9872 13.11418286314034
ONEWEB-0047             
1 45152U 20008X   26195.56126687 -.00000340  00000+0 -10098-2 0  9999
2 45152  87.8822  30.8126 0001870  92.6204 267.5137 13.10370095311783
ONEWEB-0048             
1 45153U 20008Y   26195.55633213 -.00000167  00000+0 -51388-3 0  9992
2 45153  87.8811  30.8322 0001719  92.1177 268.0147 13.10371125311395
ONEWEB-0049             
1 45154U 20008Z   26195.55956498 -.00000345  00000+0 -10234-2 0  9998
2 45154  87.8809  30.8207 0001919  75.4297 284.7043 13.10369754311614
ONEWEB-0051             
1 45155U 20008AA  26195.55250294  .00000155  00000+0  40046-3 0  9992
2 45155  87.8886  15.6176 0001846  90.0005 270.1334 13.11419389314677
ONEWEB-0052             
1 45156U 20008AB  26195.58022558 -.00000426  00000+0 -12573-2 0  9992
2 45156  87.8823  30.8045 0001787  75.9777 284.1549 13.10377061311528
